OSCAR 7 (AO-7)          
1 07530U 74089B   26193.98991432 -.00000026  00000+0  12781-3 0  9999
2 07530 101.9904 207.5054 0012659  82.4551 304.9872 12.53698525363755
PHASE 3B (AO-10)        
1 14129U 83058B   26190.70523784  .00000106  00000+0  00000+0 0  9990
2 14129  25.9319 215.8523 6003352 121.8543 310.3469  2.05870648295953
UOSAT 2 (UO-11)         
1 14781U 84021B   26194.19634764  .00000753  00000+0  82058-4 0  9999
2 14781  97.8075 159.4838 0009199  96.9874 263.2390 14.90846147261006
LUSAT (LO-19)           
1 20442U 90005G   26193.29864192  .00000048  00000+0  33720-4 0  9998
2 20442  98.8847 215.7954 0012440 129.3206 230.9083 14.34130209905999
EYESAT A (AO-27)        
1 22825U 93061C   26194.15132455  .00000041  00000+0  32598-4 0  9991
2 22825  98.6869 261.5539 0008876  31.5428 328.6285 14.30948752710713
ITAMSAT (IO-26)         
1 22826U 93061D   26194.12298663  .00000033  00000+0  29299-4 0  9998
2 22826  98.6817 261.4457 0009086  15.3060 344.8396 14.31376322711028
RADIO ROSTO (RS15)      
1 23439U 94085A   26194.19057316 -.00000018  00000+0  68239-3 0  9991
2 23439  64.8159 261.1629 0156833 359.0766   0.9847 11.27583551298831
JAS-2 (FO-29)           
1 24278U 96046B   26193.52226945  .00000020  00000+0  54923-4 0  9992
2 24278  98.5221  38.9215 0350477  30.8650 331.2590 13.53275422476596
TECHSAT 1B (GO-32)      
1 25397U 98043D   26193.91376981  .00000023  00000+0  29958-4 0  9996
2 25397  99.0083 187.3229 0002131 118.0072 242.1321 14.24433105454998
ISS (ZARYA)             
1 25544U 98067A   26194.12129675  .00004316  00000+0  86456-4 0  9991
2 25544  51.6304 171.7447 0006685 289.3803  70.6462 15.48996109575778
PCSAT (NO-44)           
1 26931U 01043C   26193.93218525  .00000030  00000+0  42247-4 0  9990
2 26931  67.0492 177.6826 0005947 266.4002  93.6419 14.31964496294131
SAUDISAT 1C (SO-50)     
1 27607U 02058C   26193.91399670  .00000395  00000+0  64575-4 0  9999
2 27607  64.5517  49.3840 0074595 257.6999 101.5749 14.83095930268271
CUTE-1 (CO-55)          
1 27844U 03031E   26193.81805928  .00000160  00000+0  88191-4 0  9991
2 27844  98.6742 202.0549 0010788 108.7901 251.4449 14.24350634195326
CUBESAT XI-IV (CO-57)   
1 27848U 03031J   26193.53826736  .00000128  00000+0  75348-4 0  9998
2 27848  98.6772 201.4707 0010448 126.3839 233.8305 14.23633637194983
MOZHAETS 4 (RS22)       
1 27939U 03042A   26194.23068854  .00000359  00000+0  63498-4 0  9997
2 27939  98.3474  19.3269 0011036 179.4751 296.3671 14.73511286219387
CUBESAT XI-V            
1 28895U 05043F   26193.88190763  .00000741  00000+0  12440-3 0  9992
2 28895  98.3010 350.0479 0015185 122.0632 238.2052 14.72699028105533
CUTE-1.7+APD II (CO-65) 
1 32785U 08021C   26194.16632127  .00003195  00000+0  20242-3 0  9996
2 32785  97.8287 176.1316 0007211 307.6464  52.4109 15.09688770989114
SEEDS II (CO-66)        
1 32791U 08021J   26193.91536891  .00012605  00000+0  39018-3 0  9993
2 32791  97.7523 193.0586 0002827 161.8962 198.2380 15.33618022991237
YUBILEINY (RS30)        
1 32953U 08025A   26194.17335772  .00000091  00000+0  58193-3 0  9992
2 32953  82.5053 339.2740 0018577 253.7335 106.1702 12.43180997822925
KKS-1 (KISEKI)          
1 33499U 09002H   26194.16306465  .00000688  00000+0  91145-4 0  9997
2 33499  98.1176 117.0169 0007256 195.9968 164.1017 14.83186425940043
SWISSCUBE               
1 35932U 09051B   26193.20904170  .00000502  00000+0  10865-3 0  9990
2 35932  98.4012 101.5313 0007715 127.0520 233.1388 14.62527427892815
BEESAT-1                
1 35933U 09051C   26193.71071439  .00000393  00000+0  88659-4 0  9995
2 35933  98.3939 101.6234 0005984 136.3628 223.8047 14.61759519892911
ITUPSAT1                
1 35935U 09051E   26192.97035851  .00000388  00000+0  90106-4 0  9996
2 35935  98.4023 100.0372 0007861 152.4089 207.7529 14.60475983892353
XIWANG-1 (HOPE-1)       
1 36122U 09072B   26194.15958105  .00000073  00000+0  30788-3 0  9996
2 36122 100.4029 147.5780 0007483 169.2025 190.9250 13.16439787796424
O/OREOS (USA 219)       
1 37224U 10062C   26193.97853779  .00001163  00000+0  11533-3 0  9999
2 37224  71.9695  21.9108 0013858   9.4460 350.6968 14.93846697120496
JUGNU                   
1 37839U 11058B   26194.06098558  .00000348  00000+0  42399-4 0  9993
2 37839  19.9592 151.2304 0018498   2.9049  74.5783 14.13783158762692
SRMSAT                  
1 37841U 11058D   26194.22886301  .00000348  00000+0  45216-4 0  9996
2 37841  19.9713 261.8486 0011833 129.6886 263.2365 14.11580868761504
STRAND-1                
1 39090U 13009E   26193.46783720  .00000149  00000+0  64299-4 0  9999
2 39090  98.3932  13.0813 0009262 148.5894 211.5848 14.37177891700690
ZACUBE-1 (TSHEPISOSAT)  
1 39417U 13066B   26193.93520538  .00001450  00000+0  11530-3 0  9998
2 39417  97.8010 156.3996 0043901 162.4582 197.8170 15.01323430684592
GOMX-1                  
1 39430U 13066Q   26194.19664862  .00000796  00000+0  12610-3 0  9993
2 39430  97.6476  33.0183 0128474 354.6506   5.3320 14.69539835673735
